XRISM                   
1 57800U 23137A   26095.31685055  .00006668  00000+0  37480-3 0  9991
2 57800  31.0012 111.3941 0007823 306.0861  53.9053 15.11832006141821
ACS3                    
1 59588U 24077B   26094.76788555  .00040672  00000+0  31622-1 0  9990
2 59588  97.1949  30.0195 0073359  18.0260 342.3481 13.90931246 97827
HTV-X1                  
1 66174U 25241A   26095.19137777  .00007088  00000+0  23350-3 0  9990
2 66174  51.6362 305.3144 0007368 275.0923  84.9217 15.32544764 25000
SZ-21 MODULE            
1 66515U 25246C   26095.22396600  .00051413  00000+0  40162-3 0  9991
2 66515  41.4750  39.7632 0003443 230.9448 129.1088 15.70779178 22241
